[{"OBJECT_NAME":"HAWK-C","OBJECT_ID":"2018-099AT","EPOCH":"2026-03-09T16:08:34.251360","MEAN_MOTION":15.26407167,"ECCENTRICITY":0.00403625,"INCLINATION":97.4027,"RA_OF_ASC_NODE":122.6817,"ARG_OF_PERICENTER":277.4052,"MEAN_ANOMALY":82.2601,"EPHEMERIS_TYPE":0,"CLASSIFICATION_TYPE":"U","NORAD_CAT_ID":43799,"ELEMENT_SET_NO":999,"REV_AT_EPOCH":39872,"BSTAR":0.00035662773,"MEAN_MOTION_DOT":9.431e-5,"MEAN_MOTION_DDOT":0},{"OBJECT_NAME":"STARLINK-35469","OBJECT_ID":"2025-223K","EPOCH":"2026-03-09T21:32:11.078880","MEAN_MOTION":15.30196098,"ECCENTRICITY":0.0001175,"INCLINATION":53.1585,"RA_OF_ASC_NODE":293.4837,"ARG_OF_PERICENTER":57.8257,"MEAN_ANOMALY":302.2858,"EPHEMERIS_TYPE":0,"CLASSIFICATION_TYPE":"U","NORAD_CAT_ID":65863,"ELEMENT_SET_NO":999,"REV_AT_EPOCH":2423,"BSTAR":0.0011202105,"MEAN_MOTION_DOT":0.00032961,"MEAN_MOTION_DDOT":0}]
